OBJECT_NAME,OBJECT_ID,EPOCH,MEAN_MOTION,ECCENTRICITY,INCLINATION,RA_OF_ASC_NODE,ARG_OF_PERICENTER,MEAN_ANOMALY,EPHEMERIS_TYPE,CLASSIFICATION_TYPE,NORAD_CAT_ID,ELEMENT_SET_NO,REV_AT_EPOCH,BSTAR,MEAN_MOTION_DOT,MEAN_MOTION_DDOT
OSCAR 7 (AO-7),1974-089B,2026-06-03T16:04:16.171104,12.53697881,.0012419,101.9902,167.7751,155.3130,322.4092,0,U,7530,999,35882,-.29295E-5,-.47E-6,0
PHASE 3B (AO-10),1983-058B,2026-06-02T07:35:50.974944,2.05871181,.60159561,25.9022,222.0290,111.5768,320.3605,0,U,14129,999,29518,0,.7E-6,0
UOSAT 2 (UO-11),1984-021B,2026-06-04T03:11:13.043040,14.90749915,.0006504,97.8051,120.8543,218.7082,141.3671,0,U,14781,999,25518,.15166E-3,.1434E-4,0
LUSAT (LO-19),1990-005G,2026-06-03T23:53:45.010176,14.34118989,.0010544,98.8853,176.4374,242.4574,117.5539,0,U,20442,999,90050,.63317E-4,.13E-5,0
EYESAT A (AO-27),1993-061C,2026-06-03T15:27:55.905120,14.30938483,.0009234,98.6883,222.0623,135.0556,225.1375,0,U,22825,999,70506,.66973E-4,.131E-5,0
ITAMSAT (IO-26),1993-061D,2026-06-03T23:27:24.215040,14.31364938,.0009977,98.6830,222.3113,119.4870,240.7309,0,U,22826,999,70542,.59572E-4,.113E-5,0
RADIO ROSTO (RS15),1994-085A,2026-06-04T04:01:01.204320,11.27583587,.015555,64.8178,324.2733,6.2800,354.0027,0,U,23439,999,29443,-.18936E-3,-.49E-6,0
JAS-2 (FO-29),1996-046B,2026-06-03T13:25:10.751808,13.53273610,.03506368,98.5251,5.2975,131.7079,231.4625,0,U,24278,999,47132,.4929532E-5,-.28E-6,0
TECHSAT 1B (GO-32),1998-043D,2026-06-03T13:51:55.224864,14.24425649,.00003192,99.0064,146.9934,213.6137,146.5021,0,U,25397,999,44939,.49971906E-4,.69E-6,0
ISS (ZARYA),1998-067A,2026-06-03T23:13:08.053248,15.49590346,.0007082,51.6330,5.5404,130.0270,230.1341,0,U,25544,999,56970,.15807E-3,.8451E-4,0
PCSAT (NO-44),2001-043C,2026-06-03T14:37:22.463328,14.31950876,.00061154,67.0512,279.3895,263.9670,96.0735,0,U,26931,999,28850,.91733675E-4,.163E-5,0
SAUDISAT 1C (SO-50),2002-058C,2026-06-03T06:20:18.097440,14.83015002,.00755199,64.5505,172.0623,265.0164,94.2317,0,U,27607,999,26239,.14986347E-3,.1126E-4,0
CUTE-1 (CO-55),2003-031E,2026-06-03T13:11:18.293856,14.24327019,.00086909,98.6736,163.2800,219.4250,140.6297,0,U,27844,999,18973,.16425086E-3,.336E-5,0
CUBESAT XI-IV (CO-57),2003-031J,2026-06-01T00:01:20.276832,14.23611465,.00082889,98.6768,160.4891,248.3946,111.6350,0,U,27848,999,18907,.14575851E-3,.288E-5,0
MOZHAETS 4 (RS22),2003-042A,2026-06-04T04:18:08.114112,14.73443970,.0010404,98.3464,339.1708,315.7267,134.7843,0,U,27939,999,21363,.19064E-3,.1184E-4,0
CUBESAT XI-V,2005-043F,2026-06-01T08:48:31.503456,14.72584583,.00128374,98.2967,307.6587,254.1655,105.8136,0,U,28895,999,9942,.27161207E-3,.1677E-4,0
CUTE-1.7+APD II (CO-65),2008-021C,2026-06-04T02:56:39.962400,15.09320521,.0010699,97.8273,136.2716,76.9308,283.3114,0,U,32785,999,98322,.34597E-3,.5458E-4,0
SEEDS II (CO-66),2008-021J,2026-06-03T13:18:22.326048,15.32257900,.00029913,97.7515,151.8069,42.0128,318.1342,0,U,32791,999,98520,.64842083E-3,.20146E-3,0
YUBILEINY (RS30),2008-025A,2026-06-04T01:27:52.027776,12.43178772,.0019413,82.5045,3.6071,343.2066,16.8369,0,U,32953,999,81806,.18825E-4,.12E-6,0
KKS-1 (KISEKI),2009-002H,2026-06-04T00:47:38.518080,14.83088133,.0007429,98.1193,77.2670,343.9089,16.1886,0,U,33499,999,93424,.20411E-3,.1607E-4,0
SWISSCUBE,2009-051B,2026-06-03T06:42:55.096704,14.62453382,.00053989,98.4045,61.9256,254.9932,105.0671,0,U,35932,999,88712,.25059349E-3,.122E-4,0
BEESAT-1,2009-051C,2026-06-03T14:58:59.003328,14.61697093,.00039096,98.3973,61.9398,272.0464,88.0289,0,U,35933,999,88720,.20663001E-3,.98E-5,0
ITUPSAT1,2009-051E,2026-06-03T06:15:28.683360,14.60418625,.00061718,98.4058,60.7773,286.3801,73.6720,0,U,35935,999,88670,.20304473E-3,.935E-5,0
XIWANG-1 (HOPE-1),2009-072B,2026-06-04T04:07:43.812768,13.16437079,.0006794,100.4026,109.2127,264.4466,95.5872,0,U,36122,999,79129,-.66176E-3,-.297E-5,0
O/OREOS (USA 219),2010-062C,2026-06-04T00:04:09.194016,14.93684023,.001235,71.9701,110.2018,92.0323,268.2262,0,U,37224,999,11467,.25562E-3,.2646E-4,0
JUGNU,2011-058B,2026-06-01T01:53:10.333248,14.13771859,.00184994,19.9618,46.2876,258.1927,242.1590,0,U,37839,999,75674,.98509485E-4,.456E-5,0
SRMSAT,2011-058D,2026-06-01T07:49:45.421824,14.11572059,.00118641,19.9701,155.4732,30.5063,85.9028,0,U,37841,999,75557,.70452217E-4,.395E-5,0
STRAND-1,2013-009E,2026-06-04T00:52:51.152160,14.37155097,.0007387,98.3918,335.5951,270.6143,89.4198,0,U,39090,999,69517,.11292E-3,.293E-5,0
ZACUBE-1 (TSHEPISOSAT),2013-066B,2026-06-03T22:37:15.793824,15.01095965,.0039904,97.8107,117.2078,294.5657,65.1411,0,U,39417,999,67874,.35148E-3,.451E-4,0
GOMX-1,2013-066Q,2026-06-04T04:18:59.743296,14.69407798,.0129976,97.6485,356.4635,118.8541,242.5783,0,U,39430,999,66800,.36522E-3,.241E-4,0
